{
"type": "FeatureCollection",
"name": "Clem_Farm_Polygons",
"crs": { "type": "name", "properties": { "name": "urn:ogc:def:crs:EPSG::32616" } },
"features": [
{ "type": "Feature", "properties": { "group": "CFE", "begin": "1", "end": "4" }, "geometry": { "type": "MultiPolygon", "coordinates": [ [ [ [ 395735.466933548974339, 4433283.859502173960209, 179.475229629629609 ], [ 395829.61865597916767, 4433282.273709276691079, 179.46855925925928 ], [ 395828.23946600034833, 4432913.762168781831861, 178.462642857142839 ], [ 395730.152332116791513, 4432915.04153741709888, 178.9068 ], [ 395735.466933548974339, 4433283.859502173960209, 179.475229629629609 ] ] ] ] } },
{ "type": "Feature", "properties": { "group": "CFW", "begin": "1", "end": "4" }, "geometry": { "type": "MultiPolygon", "coordinates": [ [ [ [ 395631.39821729628602, 4433284.047527799382806, 180.03763703703703 ], [ 395728.772544463863596, 4433283.909817009232938, 179.594322222222246 ], [ 395723.433871062588878, 4432914.210489173419774, 178.8919518518519 ], [ 395628.500843370449729, 4432914.499415555037558, 179.240128571428585 ], [ 395631.39821729628602, 4433284.047527799382806, 180.03763703703703 ] ] ] ] } }
]
}
