{
"type": "FeatureCollection",
"name": "Lo Farm Polygons",
"crs": { "type": "name", "properties": { "name": "urn:ogc:def:crs:OGC:1.3:CRS84" } },
"features": [
{ "type": "Feature", "properties": { "group": "OE", "begin": "1", "end": "43" }, "geometry": { "type": "MultiPolygon", "coordinates": [ [ [ [ -88.228061763922028, 40.061680722837082, 182.972160150448815 ], [ -88.226365741950758, 40.061683251503091, 180.889499943998601 ], [ -88.224697788209895, 40.061682109700868, 179.873577489526213 ], [ -88.224518744681703, 40.061645661362512, 179.842499004792955 ], [ -88.224358929548842, 40.061599923713871, 179.855762495990263 ], [ -88.224203094010733, 40.061544767366655, 179.76871101118482 ], [ -88.224047023876224, 40.061489285404498, 179.725453225187977 ], [ -88.22389270300512, 40.061426047115702, 179.714341014990424 ], [ -88.223751993283287, 40.061353644769177, 179.642049627602063 ], [ -88.223608978262277, 40.061274457163847, 179.65902577769009 ], [ -88.223479180899062, 40.061189790889109, 179.606910729610291 ], [ -88.223356879320448, 40.061098594664912, 179.596641756817633 ], [ -88.223238918494005, 40.061001433343449, 179.507696791440253 ], [ -88.223120290965142, 40.06090166349712, 179.512450783342956 ], [ -88.22301192851117, 40.060801978781527, 179.475748563265597 ], [ -88.222891650731057, 40.060701974729696, 179.109647587257768 ], [ -88.222780546651904, 40.060590935567085, 179.045224707424069 ], [ -88.222684484461837, 40.060471328661677, 179.15877284628354 ], [ -88.222140802406912, 40.059750967378143, 179.259922495965156 ], [ -88.221653141852997, 40.059100572099801, 179.161817351099074 ], [ -88.221399787207559, 40.05881921452869, 179.217614282740129 ], [ -88.221107202509131, 40.058541289999596, 179.124050478372993 ], [ -88.220310308799924, 40.057856653069912, 179.077504277867746 ], [ -88.219987638683193, 40.057613186574848, 179.042014576345082 ], [ -88.219859500801718, 40.057513343021348, 178.996442478967708 ], [ -88.219659068779066, 40.057341504560448, 178.98666872212462 ], [ -88.219710377036492, 40.05729395611035, 178.904695664956023 ], [ -88.221741808893327, 40.057340114726202, 179.396322638363188 ], [ -88.221922640017226, 40.057345714838526, 179.490510630927986 ], [ -88.222110272791298, 40.05733539298469, 179.520435789128044 ], [ -88.222264796694105, 40.057308172449602, 179.55105413886298 ], [ -88.222453376597215, 40.057236283064384, 179.569782718221717 ], [ -88.222625400426566, 40.057168912709876, 179.551809052178214 ], [ -88.222796327926872, 40.057074377725201, 179.538776050387099 ], [ -88.22298146224837, 40.056958189452679, 179.551111717395486 ], [ -88.223301897371513, 40.056789481969759, 179.525581208337968 ], [ -88.223482401667766, 40.056720068787484, 179.554583297176436 ], [ -88.224037465046408, 40.05654334203183, 179.850054477028579 ], [ -88.224346859665275, 40.056423512288241, 179.917877495569115 ], [ -88.224416623542623, 40.056422799921762, 180.086952917465538 ], [ -88.226342935369019, 40.056420107198385, 180.963482599570767 ], [ -88.228002176332993, 40.056423026366829, 181.538656428679815 ], [ -88.227990613140065, 40.060590419954153, 183.181875915203506 ], [ -88.228071361641767, 40.060592454660018, 183.130553477416555 ], [ -88.228061763922028, 40.061680722837082, 182.972160150448815 ] ] ] ] } },
{ "type": "Feature", "properties": { "group": "LFSD", "begin": "1", "end": "38" }, "geometry": { "type": "MultiPolygon", "coordinates": [ [ [ [ -88.228019570039038, 40.055776666602178, 181.213403417865777 ], [ -88.226658722355239, 40.05580542843326, 180.696461685676127 ], [ -88.226326072807268, 40.055825305592698, 180.769192213437037 ], [ -88.225982372653718, 40.055866495294133, 180.769894438968549 ], [ -88.225109243672478, 40.055997803698581, 180.329910221288429 ], [ -88.22510441954563, 40.056011304967505, 180.481548828173999 ], [ -88.225034429042637, 40.056009055541935, 180.417952849344289 ], [ -88.224862222776935, 40.056039211068061, 180.405189216273953 ], [ -88.224613103238411, 40.05608813006549, 180.375716194969812 ], [ -88.223888550690802, 40.056292817463728, 180.347769547569897 ], [ -88.223388277426139, 40.056454112448677, 179.846574902277467 ], [ -88.223229905878654, 40.056507837647828, 179.733917725695989 ], [ -88.223065007117071, 40.05657837945207, 179.604141292943979 ], [ -88.222841875584905, 40.056699367991236, 179.651755377429055 ], [ -88.22255021566211, 40.056870320700561, 179.589173034901791 ], [ -88.222410355520452, 40.056950250255532, 179.579738849803505 ], [ -88.222263928847639, 40.05701422151671, 179.510839280737713 ], [ -88.222113456701734, 40.057060846434993, 179.527758160241547 ], [ -88.221933252620133, 40.057075244736559, 179.456670968822834 ], [ -88.219313699777445, 40.057035658602736, 178.919105824220082 ], [ -88.218576777060505, 40.056324070831465, 178.584611581918722 ], [ -88.218394737106692, 40.056523459470775, 178.918697390054291 ], [ -88.218106295573875, 40.056378934497722, 179.106548435191684 ], [ -88.217900785032697, 40.056257300006514, 178.98064160321286 ], [ -88.217490460276125, 40.055969284605752, 178.716581686823389 ], [ -88.217141888994021, 40.055707265742505, 178.758834674697368 ], [ -88.216710540579768, 40.05534296068722, 178.662774334512108 ], [ -88.216584390421431, 40.055217281646414, 178.575078032832863 ], [ -88.216470677643528, 40.055116311617965, 178.251334324830964 ], [ -88.216317985726207, 40.055047791651553, 178.362101803205064 ], [ -88.215729688879435, 40.054876413447424, 178.711936148271207 ], [ -88.215600411686282, 40.054815192423696, 178.634433679204705 ], [ -88.215475511648066, 40.054700329413599, 178.612646368576662 ], [ -88.215484440646847, 40.054626049185842, 178.43129958881579 ], [ -88.215586207557706, 40.05460953161672, 178.466966584103602 ], [ -88.218607237155439, 40.054589583344409, 180.18554826237775 ], [ -88.218617178109156, 40.054650579678977, 180.165845668116077 ], [ -88.228018220584076, 40.054587390828836, 183.164393776161688 ], [ -88.228019570039038, 40.055776666602178, 181.213403417865777 ] ] ] ] } }
]
}
