{
"type": "FeatureCollection",
"name": "main_farm_polygons",
"crs": { "type": "name", "properties": { "name": "urn:ogc:def:crs:OGC:1.3:CRS84" } },
"features": [
{ "type": "Feature", "properties": { "group": "M-12N", "begin": "-4", "end": "-1" }, "geometry": { "type": "MultiPolygon", "coordinates": [ [ [ [ -88.229633014505808, 40.084665095798798 ], [ -88.229195795927325, 40.084667564151481 ], [ -88.229199906304899, 40.085454490963564 ], [ -88.229629108894656, 40.085452270330009 ], [ -88.229633014505808, 40.084665095798798 ] ] ] ] } },
{ "type": "Feature", "properties": { "group": "M-16", "begin": "-4", "end": "-1" }, "geometry": { "type": "MultiPolygon", "coordinates": [ [ [ [ -88.226440871096386, 40.084357168099793 ], [ -88.226031663656471, 40.084359433095287 ], [ -88.226031406638, 40.085470772009096 ], [ -88.226442534153676, 40.085468743213994 ], [ -88.226440871096386, 40.084357168099793 ] ] ] ] } },
{ "type": "Feature", "properties": { "group": "261-68", "begin": "-4", "end": "-1" }, "geometry": { "type": "MultiPolygon", "coordinates": [ [ [ [ -88.231219039722987, 40.08822319115032 ], [ -88.230274368135724, 40.088229622030632 ], [ -88.230262283819513, 40.089027320351562 ], [ -88.231220647479077, 40.08902088732529 ], [ -88.231219039722987, 40.08822319115032 ] ] ] ] } },
{ "type": "Feature", "properties": { "group": "M-10N", "begin": "-4", "end": "-1" }, "geometry": { "type": "MultiPolygon", "coordinates": [ [ [ [ -88.231009105663645, 40.084657326965356 ], [ -88.230643377646388, 40.084659391712322 ], [ -88.23064447807657, 40.085447016953324 ], [ -88.231010290240448, 40.085445124292875 ], [ -88.231009105663645, 40.084657326965356 ] ] ] ] } },
{ "type": "Feature", "properties": { "group": "M-3S", "begin": "-4", "end": "-1" }, "geometry": { "type": "MultiPolygon", "coordinates": [ [ [ [ -88.230154705762061, 40.085540404894331 ], [ -88.229200379994964, 40.085545178352959 ], [ -88.229204590816238, 40.086351334986944 ], [ -88.230155395158661, 40.086346771934927 ], [ -88.230154705762061, 40.085540404894331 ] ] ] ] } },
{ "type": "Feature", "properties": { "group": "N100-N", "begin": "-4", "end": "-1" }, "geometry": { "type": "MultiPolygon", "coordinates": [ [ [ [ -88.232284777093881, 40.089962292552151 ], [ -88.231331678382261, 40.089968220815592 ], [ -88.231326200187283, 40.090809930034339 ], [ -88.232286743232351, 40.090805104879806 ], [ -88.232284777093881, 40.089962292552151 ] ] ] ] } },
{ "type": "Feature", "properties": { "group": "S-500", "begin": "-4", "end": "-1" }, "geometry": { "type": "MultiPolygon", "coordinates": [ [ [ [ -88.228034742062334, 40.087339291403424 ], [ -88.227087410604994, 40.087343796955679 ], [ -88.227091547400107, 40.089043126498858 ], [ -88.228037082499782, 40.089038518482177 ], [ -88.228034742062334, 40.087339291403424 ] ] ] ] } },
{ "type": "Feature", "properties": { "group": "N200-S", "begin": "-4", "end": "-1" }, "geometry": { "type": "MultiPolygon", "coordinates": [ [ [ [ -88.231221567250131, 40.089111236872562 ], [ -88.230261683029482, 40.089117597661563 ], [ -88.230263302942376, 40.089974866099105 ], [ -88.231237141831841, 40.089968808831898 ], [ -88.231221567250131, 40.089111236872562 ] ] ] ] } },
{ "type": "Feature", "properties": { "group": "M-10S", "begin": "-4", "end": "-1" }, "geometry": { "type": "MultiPolygon", "coordinates": [ [ [ [ -88.231007773060853, 40.083771080187155 ], [ -88.230642139369991, 40.083773103998489 ], [ -88.230643240642991, 40.084561332487368 ], [ -88.231008958304415, 40.084559320938482 ], [ -88.231007773060853, 40.083771080187155 ] ] ] ] } },
{ "type": "Feature", "properties": { "group": "S-800", "begin": "-4", "end": "-1" }, "geometry": { "type": "MultiPolygon", "coordinates": [ [ [ [ -88.224850612050446, 40.087357872256831 ], [ -88.223905774916688, 40.087363856495024 ], [ -88.223908118892055, 40.089060416405566 ], [ -88.224852143295138, 40.089056294621628 ], [ -88.224850612050446, 40.087357872256831 ] ] ] ] } },
{ "type": "Feature", "properties": { "group": "170-78S", "begin": "-4", "end": "-1" }, "geometry": { "type": "MultiPolygon", "coordinates": [ [ [ [ -88.232278894680078, 40.087319106017148 ], [ -88.231336195444655, 40.087323589538336 ], [ -88.231336646839736, 40.087684371131509 ], [ -88.232279155756331, 40.087679154270276 ], [ -88.232278894680078, 40.087319106017148 ] ] ] ] } },
{ "type": "Feature", "properties": { "group": "M-12S", "begin": "-4", "end": "-1" }, "geometry": { "type": "MultiPolygon", "coordinates": [ [ [ [ -88.22963723989966, 40.083778666196366 ], [ -88.22919435974876, 40.083781117572947 ], [ -88.229195460951374, 40.084569295678477 ], [ -88.229633329095975, 40.084566887281852 ], [ -88.22963723989966, 40.083778666196366 ] ] ] ] } },
{ "type": "Feature", "properties": { "group": "170-78N", "begin": "-4", "end": "-1" }, "geometry": { "type": "MultiPolygon", "coordinates": [ [ [ [ -88.232279221440919, 40.087769739360851 ], [ -88.231336760175751, 40.087774955958324 ], [ -88.231337190795159, 40.088119132404344 ], [ -88.232279471267006, 40.088114272588513 ], [ -88.232279221440919, 40.087769739360851 ] ] ] ] } },
{ "type": "Feature", "properties": { "group": "651-58", "begin": "-4", "end": "-1" }, "geometry": { "type": "MultiPolygon", "coordinates": [ [ [ [ -88.226973913651392, 40.089134538411713 ], [ -88.226030557809423, 40.089141082419282 ], [ -88.226030390413314, 40.089864898376781 ], [ -88.22697574411896, 40.08985957288828 ], [ -88.226973913651392, 40.089134538411713 ] ] ] ] } },
{ "type": "Feature", "properties": { "group": "M-14/15", "begin": "-4", "end": "-1" }, "geometry": { "type": "MultiPolygon", "coordinates": [ [ [ [ -88.228030564953556, 40.08434836901796 ], [ -88.226557520519435, 40.084356522435996 ], [ -88.226560226627853, 40.085468148293252 ], [ -88.228032154346337, 40.085460532747206 ], [ -88.228030564953556, 40.08434836901796 ] ] ] ] } },
{ "type": "Feature", "properties": { "group": "N400-N", "begin": "-4", "end": "-1" }, "geometry": { "type": "MultiPolygon", "coordinates": [ [ [ [ -88.229100848043686, 40.089982096555822 ], [ -88.228156192428784, 40.089987972303383 ], [ -88.228157282781737, 40.090826152420142 ], [ -88.229102964036414, 40.090821115224038 ], [ -88.229100848043686, 40.089982096555822 ] ] ] ] } },
{ "type": "Feature", "properties": { "group": "N100-S", "begin": "-4", "end": "-1" }, "geometry": { "type": "MultiPolygon", "coordinates": [ [ [ [ -88.232282779046528, 40.089105791350725 ], [ -88.231337260385516, 40.089110561746608 ], [ -88.231331678382261, 40.089968220815592 ], [ -88.232284777093881, 40.089962292552151 ], [ -88.232282779046528, 40.089105791350725 ] ] ] ] } },
{ "type": "Feature", "properties": { "group": "551-58", "begin": "-4", "end": "-1" }, "geometry": { "type": "MultiPolygon", "coordinates": [ [ [ [ -88.22803716442256, 40.089128808048748 ], [ -88.227091882386588, 40.089133815812588 ], [ -88.227093647530211, 40.089858908699568 ], [ -88.228037471904656, 40.089853591826284 ], [ -88.22803716442256, 40.089128808048748 ] ] ] ] } },
{ "type": "Feature", "properties": { "group": "N400-S", "begin": "-4", "end": "-1" }, "geometry": { "type": "MultiPolygon", "coordinates": [ [ [ [ -88.229098681880146, 40.089123184511507 ], [ -88.228155073966164, 40.089128183406444 ], [ -88.228156016750361, 40.089852924024157 ], [ -88.229100508853904, 40.089847603389344 ], [ -88.229098681880146, 40.089123184511507 ] ] ] ] } },
{ "type": "Feature", "properties": { "group": "S-600", "begin": "-4", "end": "-1" }, "geometry": { "type": "MultiPolygon", "coordinates": [ [ [ [ -88.226971188703544, 40.087344441332768 ], [ -88.226030971939394, 40.087350396307301 ], [ -88.226030578837737, 40.089050156561441 ], [ -88.226973731175178, 40.089043810911747 ], [ -88.226971188703544, 40.087344441332768 ] ] ] ] } },
{ "type": "Feature", "properties": { "group": "741-49", "begin": "-4", "end": "-1" }, "geometry": { "type": "MultiPolygon", "coordinates": [ [ [ [ -88.225913502547741, 40.089141782206021 ], [ -88.224968714728234, 40.089146538356545 ], [ -88.224968322181965, 40.090843897153967 ], [ -88.225915033252662, 40.09083960586824 ], [ -88.225913502547741, 40.089141782206021 ] ] ] ] } },
{ "type": "Feature", "properties": { "group": "M-6S", "begin": "-4", "end": "-1" }, "geometry": { "type": "MultiPolygon", "coordinates": [ [ [ [ -88.226968526695487, 40.085556341898744 ], [ -88.226031385764273, 40.085561029400253 ], [ -88.226031199469062, 40.086366564565893 ], [ -88.226970008324002, 40.086362059082013 ], [ -88.226968526695487, 40.085556341898744 ] ] ] ] } },
{ "type": "Feature", "properties": { "group": "M-9 200", "begin": "-4", "end": "-1" }, "geometry": { "type": "MultiPolygon", "coordinates": [ [ [ [ -88.232290842738522, 40.084385933895994 ], [ -88.23112152747494, 40.084392365455273 ], [ -88.231122346589686, 40.08487747163074 ], [ -88.232291057500561, 40.084871112599728 ], [ -88.232290842738522, 40.084385933895994 ] ] ] ] } },
{ "type": "Feature", "properties": { "group": "M-18W", "begin": "-4", "end": "-1" }, "geometry": { "type": "MultiPolygon", "coordinates": [ [ [ [ -88.22590948545907, 40.084686117281827 ], [ -88.224969745057848, 40.084691422661926 ], [ -88.22496956355981, 40.08547621499153 ], [ -88.225910193428959, 40.085471381659779 ], [ -88.22590948545907, 40.084686117281827 ] ] ] ] } },
{ "type": "Feature", "properties": { "group": "M-6N", "begin": "-4", "end": "-1" }, "geometry": { "type": "MultiPolygon", "coordinates": [ [ [ [ -88.226969833357529, 40.086438537893585 ], [ -88.22603118178462, 40.086443031567526 ], [ -88.226030995169566, 40.087249949714753 ], [ -88.22697103943996, 40.08724467463913 ], [ -88.226969833357529, 40.086438537893585 ] ] ] ] } },
{ "type": "Feature", "properties": { "group": "M-3N", "begin": "-4", "end": "-1" }, "geometry": { "type": "MultiPolygon", "coordinates": [ [ [ [ -88.230155458379144, 40.086423287122621 ], [ -88.229204990413322, 40.086427837366024 ], [ -88.229209191421049, 40.087232115208323 ], [ -88.230156085075535, 40.087226801697255 ], [ -88.230155458379144, 40.086423287122621 ] ] ] ] } },
{ "type": "Feature", "properties": { "group": "M-4S", "begin": "-4", "end": "-1" }, "geometry": { "type": "MultiPolygon", "coordinates": [ [ [ [ -88.229081979233129, 40.085545770583785 ], [ -88.228150425227867, 40.085550430139946 ], [ -88.228151473665491, 40.086356389053414 ], [ -88.229086189928992, 40.086351903210485 ], [ -88.229081979233129, 40.085545770583785 ] ] ] ] } },
{ "type": "Feature", "properties": { "group": "461-69", "begin": "-4", "end": "-1" }, "geometry": { "type": "MultiPolygon", "coordinates": [ [ [ [ -88.229096028130854, 40.088235415044863 ], [ -88.228153923784532, 40.088239853770375 ], [ -88.228154961986121, 40.089037944002563 ], [ -88.229098428101295, 40.089033346068973 ], [ -88.229096028130854, 40.088235415044863 ] ] ] ] } },
{ "type": "Feature", "properties": { "group": "300", "begin": "-4", "end": "-1" }, "geometry": { "type": "MultiPolygon", "coordinates": [ [ [ [ -88.224847918229472, 40.084365985218639 ], [ -88.223902016795677, 40.084371220857726 ], [ -88.223902330680417, 40.084598409367636 ], [ -88.224848123085778, 40.084593207246265 ], [ -88.224847918229472, 40.084365985218639 ] ] ] ] } },
{ "type": "Feature", "properties": { "group": "M-13N", "begin": "-4", "end": "-1" }, "geometry": { "type": "MultiPolygon", "coordinates": [ [ [ [ -88.229077395563536, 40.084668232590268 ], [ -88.228149284430771, 40.084673472316396 ], [ -88.228150307488946, 40.085459921439544 ], [ -88.22908150564939, 40.08545510355183 ], [ -88.229077395563536, 40.084668232590268 ] ] ] ] } },
{ "type": "Feature", "properties": { "group": "M-5", "begin": "-4", "end": "-1" }, "geometry": { "type": "MultiPolygon", "coordinates": [ [ [ [ -88.228032278980834, 40.085551021097714 ], [ -88.227083057908189, 40.085555769023088 ], [ -88.227087167741232, 40.087244022983043 ], [ -88.228034603521209, 40.087238706429822 ], [ -88.228032278980834, 40.085551021097714 ] ] ] ] } },
{ "type": "Feature", "properties": { "group": "M-4N", "begin": "-4", "end": "-1" }, "geometry": { "type": "MultiPolygon", "coordinates": [ [ [ [ -88.229086589518801, 40.086428404195111 ], [ -88.22815157316991, 40.086432880465885 ], [ -88.228152620573084, 40.087238044174974 ], [ -88.229090791036199, 40.087232779614254 ], [ -88.229086589518801, 40.086428404195111 ] ] ] ] } },
{ "type": "Feature", "properties": { "group": "M-9 300", "begin": "-4", "end": "-1" }, "geometry": { "type": "MultiPolygon", "coordinates": [ [ [ [ -88.232289974577441, 40.083763983100575 ], [ -88.231120477364769, 40.083770456359943 ], [ -88.231121388499474, 40.084310059712585 ], [ -88.232283396065313, 40.084303627909009 ], [ -88.232289974577441, 40.083763983100575 ] ] ] ] } },
{ "type": "Feature", "properties": { "group": "370-78", "begin": "-4", "end": "-1" }, "geometry": { "type": "MultiPolygon", "coordinates": [ [ [ [ -88.230156164941903, 40.087329201818029 ], [ -88.229754816075342, 40.087331110651817 ], [ -88.2297559302324, 40.08812856080916 ], [ -88.230156787095723, 40.088126892165732 ], [ -88.230156164941903, 40.087329201818029 ] ] ] ] } },
{ "type": "Feature", "properties": { "group": "M-7", "begin": "-4", "end": "-1" }, "geometry": { "type": "MultiPolygon", "coordinates": [ [ [ [ -88.225910274837943, 40.085561678674601 ], [ -88.224970474561331, 40.085567102856295 ], [ -88.224970083994393, 40.087255903037232 ], [ -88.225911797533556, 40.087250618594474 ], [ -88.225910274837943, 40.085561678674601 ] ] ] ] } },
{ "type": "Feature", "properties": { "group": "370-79", "begin": "-4", "end": "-1" }, "geometry": { "type": "MultiPolygon", "coordinates": [ [ [ [ -88.229619783735288, 40.087331752871876 ], [ -88.229209722048253, 40.087333703144232 ], [ -88.229213885637023, 40.08813081717355 ], [ -88.229615827433861, 40.088129144013877 ], [ -88.229619783735288, 40.087331752871876 ] ] ] ] } },
{ "type": "Feature", "properties": { "group": "161-69", "begin": "-4", "end": "-1" }, "geometry": { "type": "MultiPolygon", "coordinates": [ [ [ [ -88.23227963007912, 40.088217901736996 ], [ -88.231337273307346, 40.088222499513265 ], [ -88.231337542255517, 40.089020186247531 ], [ -88.232281490005533, 40.089015200375727 ], [ -88.23227963007912, 40.088217901736996 ] ] ] ] } },
{ "type": "Feature", "properties": { "group": "M-1", "begin": "-4", "end": "-1" }, "geometry": { "type": "MultiPolygon", "coordinates": [ [ [ [ -88.232277228525533, 40.085528849213809 ], [ -88.231333956379601, 40.085533996595082 ], [ -88.231336065757404, 40.08721993583822 ], [ -88.23227880669927, 40.087214439908102 ], [ -88.232277228525533, 40.085528849213809 ] ] ] ] } },
{ "type": "Feature", "properties": { "group": "M-11N", "begin": "-4", "end": "-1" }, "geometry": { "type": "MultiPolygon", "coordinates": [ [ [ [ -88.230524632463528, 40.084660062097818 ], [ -88.229751090322793, 40.084664429192252 ], [ -88.229752190164902, 40.085451633524904 ], [ -88.230520724765526, 40.08544765723547 ], [ -88.230524632463528, 40.084660062097818 ] ] ] ] } },
{ "type": "Feature", "properties": { "group": "100", "begin": "-4", "end": "-1" }, "geometry": { "type": "MultiPolygon", "coordinates": [ [ [ [ -88.225909191541945, 40.084360110987099 ], [ -88.224969820477455, 40.084365310480074 ], [ -88.224969767926751, 40.084592538165793 ], [ -88.225909396431547, 40.084587369947592 ], [ -88.225909191541945, 40.084360110987099 ] ] ] ] } },
{ "type": "Feature", "properties": { "group": "M-2", "begin": "-4", "end": "-1" }, "geometry": { "type": "MultiPolygon", "coordinates": [ [ [ [ -88.231215152918224, 40.085534644898665 ], [ -88.230273296612708, 40.085539784553788 ], [ -88.230274488540104, 40.087226124552373 ], [ -88.231217571936028, 40.087220626625836 ], [ -88.231215152918224, 40.085534644898665 ] ] ] ] } },
{ "type": "Feature", "properties": { "group": "M-8", "begin": "-4", "end": "-1" }, "geometry": { "type": "MultiPolygon", "coordinates": [ [ [ [ -88.224848998153647, 40.085567774005057 ], [ -88.223903300292008, 40.085572733144815 ], [ -88.223905634020241, 40.087261876217745 ], [ -88.224850520723066, 40.087256573968716 ], [ -88.224848998153647, 40.085567774005057 ] ] ] ] } },
{ "type": "Feature", "properties": { "group": "841-49", "begin": "-4", "end": "-1" }, "geometry": { "type": "MultiPolygon", "coordinates": [ [ [ [ -88.224852225116791, 40.089147049351645 ], [ -88.223908221703283, 40.089150583342025 ], [ -88.223910569439298, 40.090849865184026 ], [ -88.224853756468008, 40.09084558987221 ], [ -88.224852225116791, 40.089147049351645 ] ] ] ] } },
{ "type": "Feature", "properties": { "group": "M-13S", "begin": "-4", "end": "-1" }, "geometry": { "type": "MultiPolygon", "coordinates": [ [ [ [ -88.229072864742832, 40.083781790057394 ], [ -88.228148125729177, 40.083786908560818 ], [ -88.228149150989694, 40.084575050674367 ], [ -88.229076981547607, 40.084569947348157 ], [ -88.229072864742832, 40.083781790057394 ] ] ] ] } },
{ "type": "Feature", "properties": { "group": "N300-N", "begin": "-4", "end": "-1" }, "geometry": { "type": "MultiPolygon", "coordinates": [ [ [ [ -88.230158696074938, 40.089118166932465 ], [ -88.229216028448747, 40.089122598014164 ], [ -88.229220310554467, 40.090820508678647 ], [ -88.230175989417816, 40.090815707958612 ], [ -88.230158696074938, 40.089118166932465 ] ] ] ] } },
{ "type": "Feature", "properties": { "group": "M-11S", "begin": "-4", "end": "-1" }, "geometry": { "type": "MultiPolygon", "coordinates": [ [ [ [ -88.230529030050221, 40.083773730067506 ], [ -88.22974984907205, 40.083778042895709 ], [ -88.229750950301664, 40.084566240332499 ], [ -88.230525119092562, 40.08456198218876 ], [ -88.230529030050221, 40.083773730067506 ] ] ] ] } },
{ "type": "Feature", "properties": { "group": "641-49", "begin": "-4", "end": "-1" }, "geometry": { "type": "MultiPolygon", "coordinates": [ [ [ [ -88.226976689485227, 40.089995308798692 ], [ -88.226030358892146, 40.0900011949646 ], [ -88.226030165143783, 40.090838957361747 ], [ -88.226978225139106, 40.090832516061987 ], [ -88.226976689485227, 40.089995308798692 ] ] ] ] } },
{ "type": "Feature", "properties": { "group": "M-9 100", "begin": "-4", "end": "-1" }, "geometry": { "type": "MultiPolygon", "coordinates": [ [ [ [ -88.232290070611953, 40.084953420031653 ], [ -88.23112248596081, 40.08496001172481 ], [ -88.231123304099057, 40.085444539575136 ], [ -88.232278276327222, 40.085438563912014 ], [ -88.232290070611953, 40.084953420031653 ] ] ] ] } },
{ "type": "Feature", "properties": { "group": "M-18E", "begin": "-4", "end": "-1" }, "geometry": { "type": "MultiPolygon", "coordinates": [ [ [ [ -88.224848208681195, 40.084692108805321 ], [ -88.223902069233162, 40.084697450311758 ], [ -88.223903153539737, 40.085482267032468 ], [ -88.224848916194858, 40.085476867141686 ], [ -88.224848208681195, 40.084692108805321 ] ] ] ] } },
{ "type": "Feature", "properties": { "group": "270-78", "begin": "-4", "end": "-1" }, "geometry": { "type": "MultiPolygon", "coordinates": [ [ [ [ -88.231217720473907, 40.08732415301079 ], [ -88.230274560998481, 40.087328638720905 ], [ -88.230275124756702, 40.088126244399497 ], [ -88.231218862110538, 40.088119838972524 ], [ -88.231217720473907, 40.08732415301079 ] ] ] ] } },
{ "type": "Feature", "properties": { "group": "N200-N", "begin": "-4", "end": "-1" }, "geometry": { "type": "MultiPolygon", "coordinates": [ [ [ [ -88.231237141831841, 40.089968808831898 ], [ -88.230263302942376, 40.089974866099105 ], [ -88.230264890971384, 40.090815261373784 ], [ -88.231252424377786, 40.090810300636875 ], [ -88.231237141831841, 40.089968808831898 ] ] ] ] } },
{ "type": "Feature", "properties": { "group": "S-700", "begin": "-4", "end": "-1" }, "geometry": { "type": "MultiPolygon", "coordinates": [ [ [ [ -88.225911888170018, 40.087351150538495 ], [ -88.224970060587054, 40.087357115715342 ], [ -88.224969667749519, 40.089055733904821 ], [ -88.225913420568958, 40.089050853163585 ], [ -88.225911888170018, 40.087351150538495 ] ] ] ] } },
{ "type": "Feature", "properties": { "group": "470-78", "begin": "-4", "end": "-1" }, "geometry": { "type": "MultiPolygon", "coordinates": [ [ [ [ -88.229091420492125, 40.08733426579191 ], [ -88.228152751551178, 40.087338730144836 ], [ -88.228153788597709, 40.088135932443748 ], [ -88.2290955873831, 40.088132012026016 ], [ -88.229091420492125, 40.08733426579191 ] ] ] ] } },
{ "type": "Feature", "properties": { "group": "361-68", "begin": "-4", "end": "-1" }, "geometry": { "type": "MultiPolygon", "coordinates": [ [ [ [ -88.230156909360034, 40.08823029606986 ], [ -88.229756083511134, 40.088232184561221 ], [ -88.229757329690798, 40.089029981850786 ], [ -88.230158169037509, 40.089027926201375 ], [ -88.230156909360034, 40.08823029606986 ] ] ] ] } },
{ "type": "Feature", "properties": { "group": "541-49", "begin": "-4", "end": "-1" }, "geometry": { "type": "MultiPolygon", "coordinates": [ [ [ [ -88.22803752922735, 40.089988710387132 ], [ -88.227093863588919, 40.089994579977052 ], [ -88.227095901705724, 40.090831805894389 ], [ -88.228037884773372, 40.090826788396775 ], [ -88.22803752922735, 40.089988710387132 ] ] ] ] } },
{ "type": "Feature", "properties": { "group": "361-69", "begin": "-4", "end": "-1" }, "geometry": { "type": "MultiPolygon", "coordinates": [ [ [ [ -88.229615680136703, 40.088232846071854 ], [ -88.22921428948986, 40.088234737224262 ], [ -88.229216302082563, 40.089032756436396 ], [ -88.229617411444622, 40.089030699402244 ], [ -88.229615680136703, 40.088232846071854 ] ] ] ] } },
{ "type": "Feature", "properties": { "group": "M-17-V2", "begin": "-6", "end": "-1" }, "geometry": { "type": "MultiPolygon", "coordinates": [ [ [ [ -88.228029792554139, 40.083787563544277 ], [ -88.224676899730454, 40.083806122070662 ], [ -88.224677105334408, 40.084034173378647 ], [ -88.224969897431592, 40.084032562940649 ], [ -88.224969839511928, 40.084283005913598 ], [ -88.228030451620356, 40.084266065184046 ], [ -88.228029792554139, 40.083787563544277 ] ] ] ] } }
]
}
